{
  "type": "FeatureCollection",
  "features": [
    {
      "type": "Feature",
      "properties": {
        "norad_id": 34615,
        "name": "COSMOS 2251 DEB",
        "group": "cosmos-2251-debris",
        "lat": 71.11245953074136,
        "lon": -17.173231032221313,
        "alt_km": 1159.0928636204999,
        "timestamp": "2025-12-17T21:39:46.084366+00:00",
        "meta_object_name": "COSMOS 2251 DEB",
        "meta_object_id": "1993-036WL",
        "meta_epoch": "2025-12-16T14:11:08.742624",
        "meta_mean_motion": 13.52203855,
        "meta_eccentricity": 0.04009084,
        "meta_inclination": 74.0049,
        "meta_ra_of_asc_node": 287.9641,
        "meta_arg_of_pericenter": 194.3854,
        "meta_mean_anomaly": 347.6359,
        "meta_ephemeris_type": 0,
        "meta_classification_type": "U",
        "meta_norad_cat_id": 34615,
        "meta_element_set_no": 999,
        "meta_rev_at_epoch": 82867,
        "meta_bstar": 7.9709818e-05,
        "meta_mean_motion_dot": 6.6e-07,
        "meta_mean_motion_ddot": 0,
        "tle_line1": "1 34615U 93036WL  25350.59107341  .00000066  00000+0  79710-4 0  9994",
        "tle_line2": "2 34615  74.0049 287.9641 0400908 194.3854 347.6359 13.52203855828679"
      },
      "geometry": {
        "type": "Point",
        "coordinates": [
          -17.173231032221313,
          71.11245953074136
        ]
      }
    },
    {
      "type": "Feature",
      "properties": {
        "norad_id": 34619,
        "name": "COSMOS 2251 DEB",
        "group": "cosmos-2251-debris",
        "lat": -71.04507853545604,
        "lon": 133.60247763680002,
        "alt_km": 618.3543317515023,
        "timestamp": "2025-12-17T21:39:46.084376+00:00",
        "meta_object_name": "COSMOS 2251 DEB",
        "meta_object_id": "1993-036WQ",
        "meta_epoch": "2025-12-17T07:16:02.233632",
        "meta_mean_motion": 14.64656458,
        "meta_eccentricity": 0.00947476,
        "meta_inclination": 74.0433,
        "meta_ra_of_asc_node": 191.1706,
        "meta_arg_of_pericenter": 284.9778,
        "meta_mean_anomaly": 74.0916,
        "meta_ephemeris_type": 0,
        "meta_classification_type": "U",
        "meta_norad_cat_id": 34619,
        "meta_element_set_no": 999,
        "meta_rev_at_epoch": 89365,
        "meta_bstar": 0.00017577496,
        "meta_mean_motion_dot": 9.63e-06,
        "meta_mean_motion_ddot": 0,
        "tle_line1": "1 34619U 93036WQ  25351.30280363  .00000963  00000+0  17577-3 0  9992",
        "tle_line2": "2 34619  74.0433 191.1706 0094747 284.9778  74.0916 14.64656458893654"
      },
      "geometry": {
        "type": "Point",
        "coordinates": [
          133.60247763680002,
          -71.04507853545604
        ]
      }
    },
    {
      "type": "Feature",
      "properties": {
        "norad_id": 34620,
        "name": "COSMOS 2251 DEB",
        "group": "cosmos-2251-debris",
        "lat": -47.65683303224599,
        "lon": 48.146023030150204,
        "alt_km": 679.7781357684198,
        "timestamp": "2025-12-17T21:39:46.084385+00:00",
        "meta_object_name": "COSMOS 2251 DEB",
        "meta_object_id": "1993-036WR",
        "meta_epoch": "2025-12-17T15:37:43.675680",
        "meta_mean_motion": 14.49177124,
        "meta_eccentricity": 0.00800634,
        "meta_inclination": 74.051,
        "meta_ra_of_asc_node": 210.3285,
        "meta_arg_of_pericenter": 245.6066,
        "meta_mean_anomaly": 113.6724,
        "meta_ephemeris_type": 0,
        "meta_classification_type": "U",
        "meta_norad_cat_id": 34620,
        "meta_element_set_no": 999,
        "meta_rev_at_epoch": 86898,
        "meta_bstar": 0.001540269,
        "meta_mean_motion_dot": 6.083e-05,
        "meta_mean_motion_ddot": 0,
        "tle_line1": "1 34620U 93036WR  25351.65119995  .00006083  00000+0  15403-2 0  9998",
        "tle_line2": "2 34620  74.0510 210.3285 0080063 245.6066 113.6724 14.49177124868984"
      },
      "geometry": {
        "type": "Point",
        "coordinates": [
          48.146023030150204,
          -47.65683303224599
        ]
      }
    },
    {
      "type": "Feature",
      "properties": {
        "norad_id": 34622,
        "name": "COSMOS 2251 DEB",
        "group": "cosmos-2251-debris",
        "lat": 73.50767217046878,
        "lon": 12.84898464667758,
        "alt_km": 780.7259294239748,
        "timestamp": "2025-12-17T21:39:46.084395+00:00",
        "meta_object_name": "COSMOS 2251 DEB",
        "meta_object_id": "1993-036WT",
        "meta_epoch": "2025-12-17T15:20:29.400288",
        "meta_mean_motion": 14.2206662,
        "meta_eccentricity": 0.01046196,
        "meta_inclination": 74.0431,
        "meta_ra_of_asc_node": 298.2205,
        "meta_arg_of_pericenter": 19.4969,
        "meta_mean_anomaly": 157.3641,
        "meta_ephemeris_type": 0,
        "meta_classification_type": "U",
        "meta_norad_cat_id": 34622,
        "meta_element_set_no": 999,
        "meta_rev_at_epoch": 86529,
        "meta_bstar": 0.00086697343,
        "meta_mean_motion_dot": 2.003e-05,
        "meta_mean_motion_ddot": 0,
        "tle_line1": "1 34622U 93036WT  25351.63922917  .00002003  00000+0  86697-3 0  9996",
        "tle_line2": "2 34622  74.0431 298.2205 0104619  19.4969 157.3641 14.22066620865291"
      },
      "geometry": {
        "type": "Point",
        "coordinates": [
          12.84898464667758,
          73.50767217046878
        ]
      }
    },
    {
      "type": "Feature",
      "properties": {
        "norad_id": 34626,
        "name": "COSMOS 2251 DEB",
        "group": "cosmos-2251-debris",
        "lat": 55.12265434394653,
        "lon": 109.62764329413237,
        "alt_km": 645.2280919953955,
        "timestamp": "2025-12-17T21:39:46.084404+00:00",
        "meta_object_name": "COSMOS 2251 DEB",
        "meta_object_id": "1993-036WX",
        "meta_epoch": "2025-12-17T15:23:44.687616",
        "meta_mean_motion": 14.7225566,
        "meta_eccentricity": 0.00268178,
        "meta_inclination": 74.048,
        "meta_ra_of_asc_node": 314.3626,
        "meta_arg_of_pericenter": 41.1166,
        "meta_mean_anomaly": 136.523,
        "meta_ephemeris_type": 0,
        "meta_classification_type": "U",
        "meta_norad_cat_id": 34626,
        "meta_element_set_no": 999,
        "meta_rev_at_epoch": 89216,
        "meta_bstar": 0.0008030559,
        "meta_mean_motion_dot": 5.071e-05,
        "meta_mean_motion_ddot": 0,
        "tle_line1": "1 34626U 93036WX  25351.64148944  .00005071  00000+0  80306-3 0  9990",
        "tle_line2": "2 34626  74.0480 314.3626 0026817  41.1166 136.5230 14.72255660892168"
      },
      "geometry": {
        "type": "Point",
        "coordinates": [
          109.62764329413237,
          55.12265434394653
        ]
      }
    },
    {
      "type": "Feature",
      "properties": {
        "norad_id": 34634,
        "name": "COSMOS 2251 DEB",
        "group": "cosmos-2251-debris",
        "lat": -19.718744569070616,
        "lon": 19.31572128090662,
        "alt_km": 739.3058644439698,
        "timestamp": "2025-12-17T21:39:46.084413+00:00",
        "meta_object_name": "COSMOS 2251 DEB",
        "meta_object_id": "1993-036XF",
        "meta_epoch": "2025-12-17T12:25:26.963616",
        "meta_mean_motion": 14.5567138,
        "meta_eccentricity": 0.00439088,
        "meta_inclination": 74.0516,
        "meta_ra_of_asc_node": 25.927,
        "meta_arg_of_pericenter": 131.9048,
        "meta_mean_anomaly": 351.4664,
        "meta_ephemeris_type": 0,
        "meta_classification_type": "U",
        "meta_norad_cat_id": 34634,
        "meta_element_set_no": 999,
        "meta_rev_at_epoch": 88851,
        "meta_bstar": 0.00024547085,
        "meta_mean_motion_dot": 1.057e-05,
        "meta_mean_motion_ddot": 0,
        "tle_line1": "1 34634U 93036XF  25351.51767319  .00001057  00000+0  24547-3 0  9993",
        "tle_line2": "2 34634  74.0516  25.9270 0043908 131.9048 351.4664 14.55671380888519"
      },
      "geometry": {
        "type": "Point",
        "coordinates": [
          19.31572128090662,
          -19.718744569070616
        ]
      }
    },
    {
      "type": "Feature",
      "properties": {
        "norad_id": 34635,
        "name": "COSMOS 2251 DEB",
        "group": "cosmos-2251-debris",
        "lat": 68.86004045791755,
        "lon": 108.45400494265067,
        "alt_km": 647.0534176135916,
        "timestamp": "2025-12-17T21:39:46.084422+00:00",
        "meta_object_name": "COSMOS 2251 DEB",
        "meta_object_id": "1993-036XG",
        "meta_epoch": "2025-12-17T11:35:48.759072",
        "meta_mean_motion": 14.6832905,
        "meta_eccentricity": 0.00281547,
        "meta_inclination": 74.0462,
        "meta_ra_of_asc_node": 61.5486,
        "meta_arg_of_pericenter": 128.7076,
        "meta_mean_anomaly": 251.4313,
        "meta_ephemeris_type": 0,
        "meta_classification_type": "U",
        "meta_norad_cat_id": 34635,
        "meta_element_set_no": 999,
        "meta_rev_at_epoch": 73289,
        "meta_bstar": 0.00083053975,
        "meta_mean_motion_dot": 4.796e-05,
        "meta_mean_motion_ddot": 0,
        "tle_line1": "1 34635U 93036XG  25351.48320323  .00004796  00000+0  83054-3 0  9991",
        "tle_line2": "2 34635  74.0462  61.5486 0028154 128.7076 251.4313 14.68329050732893"
      },
      "geometry": {
        "type": "Point",
        "coordinates": [
          108.45400494265067,
          68.86004045791755
        ]
      }
    }
  ]
}